[{"OBJECT_NAME":"NUSAT-48 (HENRIETTA LEAVITT)","OBJECT_ID":"2024-149AG","EPOCH":"2026-03-03T03:11:17.464128","MEAN_MOTION":15.29612215,"ECCENTRICITY":0.0002714,"INCLINATION":97.3945,"RA_OF_ASC_NODE":144.1893,"ARG_OF_PERICENTER":298.5629,"MEAN_ANOMALY":61.5338,"EPHEMERIS_TYPE":0,"CLASSIFICATION_TYPE":"U","NORAD_CAT_ID":60498,"ELEMENT_SET_NO":999,"REV_AT_EPOCH":8592,"BSTAR":0.00044593,"MEAN_MOTION_DOT":0.0001273,"MEAN_MOTION_DDOT":0},{"OBJECT_NAME":"FLOCK 4BE-30","OBJECT_ID":"2024-149AH","EPOCH":"2026-03-03T04:12:38.052288","MEAN_MOTION":15.37970357,"ECCENTRICITY":0.0001976,"INCLINATION":97.3859,"RA_OF_ASC_NODE":145.7996,"ARG_OF_PERICENTER":293.5337,"MEAN_ANOMALY":66.57,"EPHEMERIS_TYPE":0,"CLASSIFICATION_TYPE":"U","NORAD_CAT_ID":60499,"ELEMENT_SET_NO":999,"REV_AT_EPOCH":8539,"BSTAR":0.00057099,"MEAN_MOTION_DOT":0.00021275,"MEAN_MOTION_DDOT":0},{"OBJECT_NAME":"NUSAT-49 (KLARA DAN VON NEUMANN)","OBJECT_ID":"2024-149AJ","EPOCH":"2026-03-03T04:41:11.309856","MEAN_MOTION":15.30475259,"ECCENTRICITY":0.0001389,"INCLINATION":97.3832,"RA_OF_ASC_NODE":144.1706,"ARG_OF_PERICENTER":332.41,"MEAN_ANOMALY":27.7067,"EPHEMERIS_TYPE":0,"CLASSIFICATION_TYPE":"U","NORAD_CAT_ID":60500,"ELEMENT_SET_NO":999,"REV_AT_EPOCH":8592,"BSTAR":0.00043489,"MEAN_MOTION_DOT":0.00012748,"MEAN_MOTION_DDOT":0},{"OBJECT_NAME":"FLOCK 4BE-11","OBJECT_ID":"2024-149AK","EPOCH":"2026-03-03T03:38:46.829760","MEAN_MOTION":15.38949996,"ECCENTRICITY":0.000301,"INCLINATION":97.3762,"RA_OF_ASC_NODE":145.3435,"ARG_OF_PERICENTER":293.3365,"MEAN_ANOMALY":66.7564,"EPHEMERIS_TYPE":0,"CLASSIFICATION_TYPE":"U","NORAD_CAT_ID":60501,"ELEMENT_SET_NO":999,"REV_AT_EPOCH":8602,"BSTAR":0.0006297,"MEAN_MOTION_DOT":0.00024242,"MEAN_MOTION_DDOT":0},{"OBJECT_NAME":"FLOCK 4BE-33","OBJECT_ID":"2024-149AL","EPOCH":"2026-03-03T04:46:38.182656","MEAN_MOTION":15.63147977,"ECCENTRICITY":0.000671,"INCLINATION":97.3691,"RA_OF_ASC_NODE":146.4143,"ARG_OF_PERICENTER":264.659,"MEAN_ANOMALY":95.3902,"EPHEMERIS_TYPE":0,"CLASSIFICATION_TYPE":"U","NORAD_CAT_ID":60502,"ELEMENT_SET_NO":999,"REV_AT_EPOCH":8609,"BSTAR":0.0029318,"MEAN_MOTION_DOT":0.00276062,"MEAN_MOTION_DDOT":0},{"OBJECT_NAME":"FLOCK 4BE-10","OBJECT_ID":"2024-149AM","EPOCH":"2026-03-02T18:32:20.051520","MEAN_MOTION":15.70108898,"ECCENTRICITY":0.0006105,"INCLINATION":97.3766,"RA_OF_ASC_NODE":147.5531,"ARG_OF_PERICENTER":238.9368,"MEAN_ANOMALY":121.1295,"EPHEMERIS_TYPE":0,"CLASSIFICATION_TYPE":"U","NORAD_CAT_ID":60503,"ELEMENT_SET_NO":999,"REV_AT_EPOCH":8610,"BSTAR":0.00180264,"MEAN_MOTION_DOT":0.00222781,"MEAN_MOTION_DDOT":0},{"OBJECT_NAME":"YAM-7","OBJECT_ID":"2024-149AN","EPOCH":"2026-03-03T04:17:31.422624","MEAN_MOTION":15.30162416,"ECCENTRICITY":0.0002356,"INCLINATION":97.3847,"RA_OF_ASC_NODE":142.9613,"ARG_OF_PERICENTER":332.73,"MEAN_ANOMALY":27.3817,"EPHEMERIS_TYPE":0,"CLASSIFICATION_TYPE":"U","NORAD_CAT_ID":60504,"ELEMENT_SET_NO":999,"REV_AT_EPOCH":8583,"BSTAR":0.00033723,"MEAN_MOTION_DOT":9.77e-5,"MEAN_MOTION_DDOT":0},{"OBJECT_NAME":"FLOCK 4BE-24","OBJECT_ID":"2024-149AP","EPOCH":"2026-03-03T04:45:06.397344","MEAN_MOTION":15.38823416,"ECCENTRICITY":0.0002912,"INCLINATION":97.3777,"RA_OF_ASC_NODE":145.6357,"ARG_OF_PERICENTER":304.598,"MEAN_ANOMALY":55.4991,"EPHEMERIS_TYPE":0,"CLASSIFICATION_TYPE":"U","NORAD_CAT_ID":60505,"ELEMENT_SET_NO":999,"REV_AT_EPOCH":8604,"BSTAR":0.00061553,"MEAN_MOTION_DOT":0.00023595,"MEAN_MOTION_DDOT":0},{"OBJECT_NAME":"LUR-1","OBJECT_ID":"2024-149AQ","EPOCH":"2026-03-03T04:24:57.461760","MEAN_MOTION":15.28515001,"ECCENTRICITY":0.0003321,"INCLINATION":97.3813,"RA_OF_ASC_NODE":141.8718,"ARG_OF_PERICENTER":340.0029,"MEAN_ANOMALY":20.108,"EPHEMERIS_TYPE":0,"CLASSIFICATION_TYPE":"U","NORAD_CAT_ID":60506,"ELEMENT_SET_NO":999,"REV_AT_EPOCH":8577,"BSTAR":0.00034142,"MEAN_MOTION_DOT":9.403e-5,"MEAN_MOTION_DDOT":0},{"OBJECT_NAME":"TANAGER-1","OBJECT_ID":"2024-149AR","EPOCH":"2026-03-03T05:03:02.470464","MEAN_MOTION":15.43535761,"ECCENTRICITY":0.0007213,"INCLINATION":97.3799,"RA_OF_ASC_NODE":155.4968,"ARG_OF_PERICENTER":219.2528,"MEAN_ANOMALY":140.8197,"EPHEMERIS_TYPE":0,"CLASSIFICATION_TYPE":"U","NORAD_CAT_ID":60507,"ELEMENT_SET_NO":999,"REV_AT_EPOCH":8668,"BSTAR":0.00011423,"MEAN_MOTION_DOT":5.039e-5,"MEAN_MOTION_DDOT":0},{"OBJECT_NAME":"EAGLEEYE","OBJECT_ID":"2024-149AS","EPOCH":"2026-03-03T03:35:34.379808","MEAN_MOTION":15.55718309,"ECCENTRICITY":0.0002786,"INCLINATION":97.3792,"RA_OF_ASC_NODE":150.9114,"ARG_OF_PERICENTER":275.4482,"MEAN_ANOMALY":84.6454,"EPHEMERIS_TYPE":0,"CLASSIFICATION_TYPE":"U","NORAD_CAT_ID":60508,"ELEMENT_SET_NO":999,"REV_AT_EPOCH":8637,"BSTAR":0.0010246,"MEAN_MOTION_DOT":0.00070942,"MEAN_MOTION_DDOT":0},{"OBJECT_NAME":"FLOCK 4BE-29","OBJECT_ID":"2024-149AT","EPOCH":"2026-03-03T03:57:39.929472","MEAN_MOTION":15.40079781,"ECCENTRICITY":0.0002059,"INCLINATION":97.386,"RA_OF_ASC_NODE":146.7298,"ARG_OF_PERICENTER":325.6049,"MEAN_ANOMALY":34.5063,"EPHEMERIS_TYPE":0,"CLASSIFICATION_TYPE":"U","NORAD_CAT_ID":60509,"ELEMENT_SET_NO":999,"REV_AT_EPOCH":8607,"BSTAR":0.00064385,"MEAN_MOTION_DOT":0.00025726,"MEAN_MOTION_DDOT":0},{"OBJECT_NAME":"TRANSPORTER-11 OBJECT AU","OBJECT_ID":"2024-149AU","EPOCH":"2026-03-03T04:25:38.364384","MEAN_MOTION":15.36966023,"ECCENTRICITY":0.0002597,"INCLINATION":97.3789,"RA_OF_ASC_NODE":145.2908,"ARG_OF_PERICENTER":321.0218,"MEAN_ANOMALY":39.0839,"EPHEMERIS_TYPE":0,"CLASSIFICATION_TYPE":"U","NORAD_CAT_ID":60510,"ELEMENT_SET_NO":999,"REV_AT_EPOCH":8601,"BSTAR":0.0005109,"MEAN_MOTION_DOT":0.00018414,"MEAN_MOTION_DDOT":0},{"OBJECT_NAME":"FLOCK 4BE-2","OBJECT_ID":"2024-149AV","EPOCH":"2026-03-03T05:00:26.719776","MEAN_MOTION":15.42501428,"ECCENTRICITY":0.0002639,"INCLINATION":97.3864,"RA_OF_ASC_NODE":147.3271,"ARG_OF_PERICENTER":301.8445,"MEAN_ANOMALY":58.2545,"EPHEMERIS_TYPE":0,"CLASSIFICATION_TYPE":"U","NORAD_CAT_ID":60511,"ELEMENT_SET_NO":999,"REV_AT_EPOCH":8611,"BSTAR":0.0011601,"MEAN_MOTION_DOT":0.00050462,"MEAN_MOTION_DDOT":0},{"OBJECT_NAME":"FLOCK 4BE-13","OBJECT_ID":"2024-149AW","EPOCH":"2026-03-03T04:52:17.689728","MEAN_MOTION":15.38514566,"ECCENTRICITY":0.0003464,"INCLINATION":97.3776,"RA_OF_ASC_NODE":145.7449,"ARG_OF_PERICENTER":295.2729,"MEAN_ANOMALY":64.8157,"EPHEMERIS_TYPE":0,"CLASSIFICATION_TYPE":"U","NORAD_CAT_ID":60512,"ELEMENT_SET_NO":999,"REV_AT_EPOCH":8605,"BSTAR":0.00057556,"MEAN_MOTION_DOT":0.00021833,"MEAN_MOTION_DDOT":0},{"OBJECT_NAME":"FLOCK 4BE-27","OBJECT_ID":"2024-149AX","EPOCH":"2026-03-03T03:48:23.890176","MEAN_MOTION":15.32412167,"ECCENTRICITY":0.0003054,"INCLINATION":97.3884,"RA_OF_ASC_NODE":144.0955,"ARG_OF_PERICENTER":338.2799,"MEAN_ANOMALY":21.8313,"EPHEMERIS_TYPE":0,"CLASSIFICATION_TYPE":"U","NORAD_CAT_ID":60513,"ELEMENT_SET_NO":999,"REV_AT_EPOCH":8589,"BSTAR":0.00040799,"MEAN_MOTION_DOT":0.00012699,"MEAN_MOTION_DDOT":0}]
