NUSAT-48 (HENRIETTA LE*)
1 60498U 24149AG  26062.13284102  .00012730  00000+0  44593-3 0  9994
2 60498  97.3945 144.1893 0002714 298.5629  61.5338 15.29612215 85925
FLOCK 4BE-30            
1 60499U 24149AH  26062.17544042  .00021275  00000+0  57099-3 0  9990
2 60499  97.3859 145.7996 0001976 293.5337  66.5700 15.37970357 85393
NUSAT-49 (KLARA DAN VO*)
1 60500U 24149AJ  26062.19526979  .00012748  00000+0  43489-3 0  9997
2 60500  97.3832 144.1706 0001389 332.4100  27.7067 15.30475259 85926
FLOCK 4BE-11            
1 60501U 24149AK  26062.15193090  .00024242  00000+0  62970-3 0  9996
2 60501  97.3762 145.3435 0003010 293.3365  66.7564 15.38949996 86021
FLOCK 4BE-33            
1 60502U 24149AL  26062.19905304  .00276062  00000+0  29318-2 0  9997
2 60502  97.3691 146.4143 0006710 264.6590  95.3902 15.63147977 86090
FLOCK 4BE-10            
1 60503U 24149AM  26061.77245430  .00222781  00000+0  18026-2 0  9991
2 60503  97.3766 147.5531 0006105 238.9368 121.1295 15.70108898 86104
YAM-7                   
1 60504U 24149AN  26062.17883591  .00009770  00000+0  33723-3 0  9996
2 60504  97.3847 142.9613 0002356 332.7300  27.3817 15.30162416 85836
FLOCK 4BE-24            
1 60505U 24149AP  26062.19799071  .00023595  00000+0  61553-3 0  9991
2 60505  97.3777 145.6357 0002912 304.5980  55.4991 15.38823416 86044
LUR-1                   
1 60506U 24149AQ  26062.18399840  .00009403  00000+0  34142-3 0  9997
2 60506  97.3813 141.8718 0003321 340.0029  20.1080 15.28515001 85773
TANAGER-1               
1 60507U 24149AR  26062.21044526  .00005039  00000+0  11423-3 0  9998
2 60507  97.3799 155.4968 0007213 219.2528 140.8197 15.43535761 86682
EAGLEEYE                
1 60508U 24149AS  26062.14970347  .00070942  00000+0  10246-2 0  9996
2 60508  97.3792 150.9114 0002786 275.4482  84.6454 15.55718309 86373
FLOCK 4BE-29            
1 60509U 24149AT  26062.16504548  .00025726  00000+0  64385-3 0  9999
2 60509  97.3860 146.7298 0002059 325.6049  34.5063 15.40079781 86071
TRANSPORTER-11 OBJECT AU
1 60510U 24149AU  26062.18447181  .00018414  00000+0  51090-3 0  9997
2 60510  97.3789 145.2908 0002597 321.0218  39.0839 15.36966023 86014
FLOCK 4BE-2             
1 60511U 24149AV  26062.20864259  .00050462  00000+0  11601-2 0  9992
2 60511  97.3864 147.3271 0002639 301.8445  58.2545 15.42501428 86119
FLOCK 4BE-13            
1 60512U 24149AW  26062.20298252  .00021833  00000+0  57556-3 0  9997
2 60512  97.3776 145.7449 0003464 295.2729  64.8157 15.38514566 86056
FLOCK 4BE-27            
1 60513U 24149AX  26062.15860984  .00012699  00000+0  40799-3 0  9990
2 60513  97.3884 144.0955 0003054 338.2799  21.8313 15.32412167 85897
